OBJECT_NAME,OBJECT_ID,EPOCH,MEAN_MOTION,ECCENTRICITY,INCLINATION,RA_OF_ASC_NODE,ARG_OF_PERICENTER,MEAN_ANOMALY,EPHEMERIS_TYPE,CLASSIFICATION_TYPE,NORAD_CAT_ID,ELEMENT_SET_NO,REV_AT_EPOCH,BSTAR,MEAN_MOTION_DOT,MEAN_MOTION_DDOT
SWARM B,2013-067A,2026-06-17T22:04:00.397920,15.28555368,.00032671,87.7439,342.0937,85.7434,274.4188,0,U,39451,999,68335,.98006251E-4,.2756E-4,0
SWARM A,2013-067B,2026-06-17T22:18:20.789856,15.50966472,.00030001,87.3321,55.9660,95.3776,264.7827,0,U,39452,999,70636,.15100954E-3,.8793E-4,0
SWARM C,2013-067C,2026-06-17T22:18:11.070720,15.50965008,.00029946,87.3320,54.5471,95.6405,264.5197,0,U,39453,999,70632,.15164416E-3,.883E-4,0
BRITE-CA1 (TORONTO),2014-033L,2026-06-17T20:28:29.415072,14.72677576,.00772164,97.9741,297.7687,274.8435,84.3959,0,U,40020,999,64231,.95533457E-4,.583E-5,0
OCO 2,2014-035A,2026-06-17T21:51:37.179072,14.57111764,.00015004,98.2017,110.1928,84.7570,275.3800,0,U,40059,999,63615,.79542542E-4,.313E-5,0
BRITE-PL2 (HEWELIUSZ),2014-049B,2026-06-17T20:12:15.573888,14.94595353,.00153055,97.9098,280.8468,106.5628,253.7274,0,U,40119,999,64154,.14781079E-3,.1543E-4,0
MMS 1,2015-011A,2026-06-18T00:00:02.999808,0.28355452,.832369,72.2059,348.7556,167.4640,21.3866,0,U,40482,999,138,0,-.742E-5,0
MMS 2,2015-011B,2026-06-18T00:00:02.999808,0.28355475,.83244744,72.2060,348.7578,167.4696,21.3753,0,U,40483,999,138,0,-.742E-5,0
MMS 3,2015-011C,2026-06-18T00:00:02.999808,0.28355444,.83232673,72.2051,348.7581,167.4719,21.3592,0,U,40484,999,138,0,-.742E-5,0
MMS 4,2015-011D,2026-06-18T00:00:02.999808,0.28355444,.83232673,72.2051,348.7581,167.4719,21.3592,0,U,40485,999,138,0,-.742E-5,0
ASTROSAT,2015-052A,2026-06-17T00:34:51.918528,14.82507303,.00078112,5.9955,156.5222,29.1364,330.9199,0,U,40930,999,57980,.9146995E-4,.1422E-4,0
DAMPE,2015-078A,2026-06-17T22:52:04.079136,15.30786000,.00137967,97.4551,174.4232,74.6143,285.6621,0,U,41173,999,58466,.28374799E-4,.768E-5,0
PISAT,2016-059B,2026-06-17T23:04:24.956544,14.68984509,.00284433,97.8178,169.3809,200.2325,159.7756,0,U,41784,999,51985,.11935816E-3,.656E-5,0
HXMT (HUIYAN),2017-034A,2026-06-17T22:10:06.915360,15.18480457,.00306709,43.0125,178.9399,151.9278,208.3232,0,U,42758,999,49777,.10763209E-3,.2039E-4,0
FLYING LAPTOP,2017-042G,2026-06-17T22:03:00.734400,15.01150240,.0019572,97.4687,324.4230,119.1525,241.1661,0,U,42831,999,48656,.23192411E-3,.2926E-4,0
ZHANGHENG 1-01 (CSES-1),2018-015C,2026-06-17T22:17:06.110880,15.20819571,.00170596,97.6873,334.6002,263.6146,96.3146,0,U,43194,999,46475,.2723017E-3,.5956E-4,0
SALSAT,2020-068K,2026-06-17T12:54:41.050368,15.29803905,.000804,97.8847,171.6239,306.6544,53.3955,0,U,46495,999,31541,.21821E-3,.6219E-4,0
IXPE,2021-121A,2026-06-17T22:00:01.999584,15.10256396,.00070328,0.2314,312.1107,92.0015,239.6615,0,U,49954,999,567,.52976217E-3,.9862E-4,0
SMILE,2026-109A,2026-06-07T09:11:54.544416,7.54049028,.3310191,69.9787,209.3069,288.5544,45.7342,0,U,69123,999,248,-.36778157E-3,-.41E-6,0
