SWARM B                 
1 39451U 13067A   26168.91944905  .00002756  00000+0  98006-4 0  9999
2 39451  87.7439 342.0937 0003267  85.7434 274.4188 15.28555368683356
SWARM A                 
1 39452U 13067B   26168.92940729  .00008793  00000+0  15101-3 0  9992
2 39452  87.3321  55.9660 0003000  95.3776 264.7827 15.50966472706363
SWARM C                 
1 39453U 13067C   26168.92929480  .00008830  00000+0  15164-3 0  9995
2 39453  87.3320  54.5471 0002994  95.6405 264.5197 15.50965008706329
BRITE-CA1 (TORONTO)     
1 40020U 14033L   26168.85311823  .00000583  00000+0  95533-4 0  9995
2 40020  97.9741 297.7687 0077216 274.8435  84.3959 14.72677576642313
OCO 2                   
1 40059U 14035A   26168.91084698  .00000313  00000+0  79543-4 0  9997
2 40059  98.2017 110.1928 0001500  84.7570 275.3800 14.57111764636159
BRITE-PL2 (HEWELIUSZ)   
1 40119U 14049B   26168.84184692  .00001543  00000+0  14781-3 0  9994
2 40119  97.9098 280.8468 0015305 106.5628 253.7274 14.94595353641545
MMS 1                   
1 40482U 15011A   26169.00003472 -.00000742  00000+0  00000+0 0  9998
2 40482  72.2059 348.7556 8323690 167.4640  21.3866  0.28355452  1384
MMS 2                   
1 40483U 15011B   26169.00003472 -.00000742  00000+0  00000+0 0  9999
2 40483  72.2060 348.7578 8324474 167.4696  21.3753  0.28355475  1383
MMS 3                   
1 40484U 15011C   26169.00003472 -.00000742  00000+0  00000+0 0  9990
2 40484  72.2051 348.7581 8323267 167.4719  21.3592  0.28355444  1380
MMS 4                   
1 40485U 15011D   26169.00003472 -.00000742  00000+0  00000+0 0  9991
2 40485  72.2051 348.7581 8323267 167.4719  21.3592  0.28355444  1381
ASTROSAT                
1 40930U 15052A   26168.02421202  .00001422  00000+0  91470-4 0  9998
2 40930   5.9955 156.5222 0007811  29.1364 330.9199 14.82507303579802
DAMPE                   
1 41173U 15078A   26168.95282499  .00000768  00000+0  28375-4 0  9997
2 41173  97.4551 174.4232 0013796  74.6143 285.6621 15.30786000584662
PISAT                   
1 41784U 16059B   26168.96139996  .00000656  00000+0  11936-3 0  9999
2 41784  97.8178 169.3809 0028443 200.2325 159.7756 14.68984509519859
HXMT (HUIYAN)           
1 42758U 17034A   26168.92369115  .00002039  00000+0  10763-3 0  9993
2 42758  43.0125 178.9399 0030670 151.9278 208.3232 15.18480457497775
FLYING LAPTOP           
1 42831U 17042G   26168.91875850  .00002926  00000+0  23192-3 0  9996
2 42831  97.4687 324.4230 0019572 119.1525 241.1661 15.01150240486566
ZHANGHENG 1-01 (CSES-1) 
1 43194U 18015C   26168.92854295  .00005956  00000+0  27230-3 0  9994
2 43194  97.6873 334.6002 0017059 263.6146  96.3146 15.20819571464755
SALSAT                  
1 46495U 20068K   26168.53797512  .00006219  00000+0  21821-3 0  9990
2 46495  97.8847 171.6239 0008040 306.6544  53.3955 15.29803905315418
IXPE                    
1 49954U 21121A   26168.91668981  .00009862  00000+0  52976-3 0  9995
2 49954   0.2314 312.1107 0007032  92.0015 239.6615 15.10256396  5675
SMILE                   
1 69123U 26109A   26158.38327019 -.00000041  00000+0 -36778-3 0  9994
2 69123  69.9787 209.3069 3310191 288.5544  45.7342  7.54049028  2480
